{
  "type": "FeatureCollection",
  "features": [
    {
      "type": "Feature",
      "properties": {
        "type": "transect",
        "transect": "T01",
        "length_m": 100.0,
        "bearing_deg": 10.0
      },
      "geometry": {
        "type": "LineString",
        "coordinates": [
          [
            115.517,
            -32.00499
          ],
          [
            115.51718395,
            -32.00410534
          ]
        ]
      }
    },
    {
      "type": "Feature",
      "properties": {
        "type": "segment_start",
        "transect": "T01",
        "segment": "S01",
        "label": "T01_S01_start"
      },
      "geometry": {
        "type": "Point",
        "coordinates": [
          115.517,
          -32.00499
        ]
      }
    },
    {
      "type": "Feature",
      "properties": {
        "type": "segment_start",
        "transect": "T01",
        "segment": "S02",
        "label": "T01_S02_start"
      },
      "geometry": {
        "type": "Point",
        "coordinates": [
          115.51704599,
          -32.00476883
        ]
      }
    },
    {
      "type": "Feature",
      "properties": {
        "type": "segment_start",
        "transect": "T01",
        "segment": "S03",
        "label": "T01_S03_start"
      },
      "geometry": {
        "type": "Point",
        "coordinates": [
          115.51709198,
          -32.00454767
        ]
      }
    },
    {
      "type": "Feature",
      "properties": {
        "type": "segment_start",
        "transect": "T01",
        "segment": "S04",
        "label": "T01_S04_start"
      },
      "geometry": {
        "type": "Point",
        "coordinates": [
          115.51713796,
          -32.0043265
        ]
      }
    },
    {
      "type": "Feature",
      "properties": {
        "type": "segment_end",
        "transect": "T01",
        "segment": "S04",
        "label": "T01_S04_end"
      },
      "geometry": {
        "type": "Point",
        "coordinates": [
          115.51718395,
          -32.00410534
        ]
      }
    },
    {
      "type": "Feature",
      "properties": {
        "type": "transect",
        "transect": "T02",
        "length_m": 100.0,
        "bearing_deg": 10.0
      },
      "geometry": {
        "type": "LineString",
        "coordinates": [
          [
            115.51726081,
            -32.005029
          ],
          [
            115.51744476,
            -32.00414433
          ]
        ]
      }
    },
    {
      "type": "Feature",
      "properties": {
        "type": "segment_start",
        "transect": "T02",
        "segment": "S01",
        "label": "T02_S01_start"
      },
      "geometry": {
        "type": "Point",
        "coordinates": [
          115.51726081,
          -32.005029
        ]
      }
    },
    {
      "type": "Feature",
      "properties": {
        "type": "segment_start",
        "transect": "T02",
        "segment": "S02",
        "label": "T02_S02_start"
      },
      "geometry": {
        "type": "Point",
        "coordinates": [
          115.5173068,
          -32.00480783
        ]
      }
    },
    {
      "type": "Feature",
      "properties": {
        "type": "segment_start",
        "transect": "T02",
        "segment": "S03",
        "label": "T02_S03_start"
      },
      "geometry": {
        "type": "Point",
        "coordinates": [
          115.51735278,
          -32.00458667
        ]
      }
    },
    {
      "type": "Feature",
      "properties": {
        "type": "segment_start",
        "transect": "T02",
        "segment": "S04",
        "label": "T02_S04_start"
      },
      "geometry": {
        "type": "Point",
        "coordinates": [
          115.51739877,
          -32.0043655
        ]
      }
    },
    {
      "type": "Feature",
      "properties": {
        "type": "segment_end",
        "transect": "T02",
        "segment": "S04",
        "label": "T02_S04_end"
      },
      "geometry": {
        "type": "Point",
        "coordinates": [
          115.51744476,
          -32.00414433
        ]
      }
    },
    {
      "type": "Feature",
      "properties": {
        "type": "transect",
        "transect": "T03",
        "length_m": 100.0,
        "bearing_deg": 10.0
      },
      "geometry": {
        "type": "LineString",
        "coordinates": [
          [
            115.51752162,
            -32.005068
          ],
          [
            115.51770557,
            -32.00418333
          ]
        ]
      }
    },
    {
      "type": "Feature",
      "properties": {
        "type": "segment_start",
        "transect": "T03",
        "segment": "S01",
        "label": "T03_S01_start"
      },
      "geometry": {
        "type": "Point",
        "coordinates": [
          115.51752162,
          -32.005068
        ]
      }
    },
    {
      "type": "Feature",
      "properties": {
        "type": "segment_start",
        "transect": "T03",
        "segment": "S02",
        "label": "T03_S02_start"
      },
      "geometry": {
        "type": "Point",
        "coordinates": [
          115.5175676,
          -32.00484683
        ]
      }
    },
    {
      "type": "Feature",
      "properties": {
        "type": "segment_start",
        "transect": "T03",
        "segment": "S03",
        "label": "T03_S03_start"
      },
      "geometry": {
        "type": "Point",
        "coordinates": [
          115.51761359,
          -32.00462566
        ]
      }
    },
    {
      "type": "Feature",
      "properties": {
        "type": "segment_start",
        "transect": "T03",
        "segment": "S04",
        "label": "T03_S04_start"
      },
      "geometry": {
        "type": "Point",
        "coordinates": [
          115.51765958,
          -32.0044045
        ]
      }
    },
    {
      "type": "Feature",
      "properties": {
        "type": "segment_end",
        "transect": "T03",
        "segment": "S04",
        "label": "T03_S04_end"
      },
      "geometry": {
        "type": "Point",
        "coordinates": [
          115.51770557,
          -32.00418333
        ]
      }
    },
    {
      "type": "Feature",
      "properties": {
        "type": "transect",
        "transect": "T04",
        "length_m": 100.0,
        "bearing_deg": 10.0
      },
      "geometry": {
        "type": "LineString",
        "coordinates": [
          [
            115.51778242,
            -32.00510699
          ],
          [
            115.51796638,
            -32.00422233
          ]
        ]
      }
    },
    {
      "type": "Feature",
      "properties": {
        "type": "segment_start",
        "transect": "T04",
        "segment": "S01",
        "label": "T04_S01_start"
      },
      "geometry": {
        "type": "Point",
        "coordinates": [
          115.51778242,
          -32.00510699
        ]
      }
    },
    {
      "type": "Feature",
      "properties": {
        "type": "segment_start",
        "transect": "T04",
        "segment": "S02",
        "label": "T04_S02_start"
      },
      "geometry": {
        "type": "Point",
        "coordinates": [
          115.51782841,
          -32.00488583
        ]
      }
    },
    {
      "type": "Feature",
      "properties": {
        "type": "segment_start",
        "transect": "T04",
        "segment": "S03",
        "label": "T04_S03_start"
      },
      "geometry": {
        "type": "Point",
        "coordinates": [
          115.5178744,
          -32.00466466
        ]
      }
    },
    {
      "type": "Feature",
      "properties": {
        "type": "segment_start",
        "transect": "T04",
        "segment": "S04",
        "label": "T04_S04_start"
      },
      "geometry": {
        "type": "Point",
        "coordinates": [
          115.51792039,
          -32.00444349
        ]
      }
    },
    {
      "type": "Feature",
      "properties": {
        "type": "segment_end",
        "transect": "T04",
        "segment": "S04",
        "label": "T04_S04_end"
      },
      "geometry": {
        "type": "Point",
        "coordinates": [
          115.51796638,
          -32.00422233
        ]
      }
    },
    {
      "type": "Feature",
      "properties": {
        "type": "transect",
        "transect": "T05",
        "length_m": 100.0,
        "bearing_deg": 10.0
      },
      "geometry": {
        "type": "LineString",
        "coordinates": [
          [
            115.51804323,
            -32.00514599
          ],
          [
            115.51822718,
            -32.00426133
          ]
        ]
      }
    },
    {
      "type": "Feature",
      "properties": {
        "type": "segment_start",
        "transect": "T05",
        "segment": "S01",
        "label": "T05_S01_start"
      },
      "geometry": {
        "type": "Point",
        "coordinates": [
          115.51804323,
          -32.00514599
        ]
      }
    },
    {
      "type": "Feature",
      "properties": {
        "type": "segment_start",
        "transect": "T05",
        "segment": "S02",
        "label": "T05_S02_start"
      },
      "geometry": {
        "type": "Point",
        "coordinates": [
          115.51808922,
          -32.00492482
        ]
      }
    },
    {
      "type": "Feature",
      "properties": {
        "type": "segment_start",
        "transect": "T05",
        "segment": "S03",
        "label": "T05_S03_start"
      },
      "geometry": {
        "type": "Point",
        "coordinates": [
          115.51813521,
          -32.00470366
        ]
      }
    },
    {
      "type": "Feature",
      "properties": {
        "type": "segment_start",
        "transect": "T05",
        "segment": "S04",
        "label": "T05_S04_start"
      },
      "geometry": {
        "type": "Point",
        "coordinates": [
          115.5181812,
          -32.00448249
        ]
      }
    },
    {
      "type": "Feature",
      "properties": {
        "type": "segment_end",
        "transect": "T05",
        "segment": "S04",
        "label": "T05_S04_end"
      },
      "geometry": {
        "type": "Point",
        "coordinates": [
          115.51822718,
          -32.00426133
        ]
      }
    },
    {
      "type": "Feature",
      "properties": {
        "type": "transect",
        "transect": "T06",
        "length_m": 100.0,
        "bearing_deg": 10.0
      },
      "geometry": {
        "type": "LineString",
        "coordinates": [
          [
            115.51830404,
            -32.00518499
          ],
          [
            115.51848799,
            -32.00430032
          ]
        ]
      }
    },
    {
      "type": "Feature",
      "properties": {
        "type": "segment_start",
        "transect": "T06",
        "segment": "S01",
        "label": "T06_S01_start"
      },
      "geometry": {
        "type": "Point",
        "coordinates": [
          115.51830404,
          -32.00518499
        ]
      }
    },
    {
      "type": "Feature",
      "properties": {
        "type": "segment_start",
        "transect": "T06",
        "segment": "S02",
        "label": "T06_S02_start"
      },
      "geometry": {
        "type": "Point",
        "coordinates": [
          115.51835003,
          -32.00496382
        ]
      }
    },
    {
      "type": "Feature",
      "properties": {
        "type": "segment_start",
        "transect": "T06",
        "segment": "S03",
        "label": "T06_S03_start"
      },
      "geometry": {
        "type": "Point",
        "coordinates": [
          115.51839602,
          -32.00474266
        ]
      }
    },
    {
      "type": "Feature",
      "properties": {
        "type": "segment_start",
        "transect": "T06",
        "segment": "S04",
        "label": "T06_S04_start"
      },
      "geometry": {
        "type": "Point",
        "coordinates": [
          115.518442,
          -32.00452149
        ]
      }
    },
    {
      "type": "Feature",
      "properties": {
        "type": "segment_end",
        "transect": "T06",
        "segment": "S04",
        "label": "T06_S04_end"
      },
      "geometry": {
        "type": "Point",
        "coordinates": [
          115.51848799,
          -32.00430032
        ]
      }
    }
  ]
}