<?xml version="1.0" encoding="UTF-8"?>
<kml xmlns="http://www.opengis.net/kml/2.2">
<Document>
  <name>Lake Timperley trial transects</name>
  <Style id="transectLine">
    <LineStyle><color>ff0080ff</color><width>3</width></LineStyle>
  </Style>
  <Style id="segmentMarker">
    <IconStyle>
      <color>ff00ffff</color><scale>1.0</scale>
      <Icon><href>http://maps.google.com/mapfiles/kml/paddle/wht-blank.png</href></Icon>
    </IconStyle>
    <LabelStyle><color>ffffffff</color><scale>1.1</scale></LabelStyle>
  </Style>
  <Placemark>
    <styleUrl>#transectLine</styleUrl>
    <LineString><coordinates>115.51812009137888,-32.0039103485671,0 115.51830404154565,-32.00479501237685,0</coordinates></LineString>
  </Placemark>
  <Placemark>
    <name>1_1</name>
    <styleUrl>#segmentMarker</styleUrl>
    <Point><coordinates>115.51812009137888,-32.0039103485671,0</coordinates></Point>
  </Placemark>
  <Placemark>
    <name>1_2</name>
    <styleUrl>#segmentMarker</styleUrl>
    <Point><coordinates>115.51816607892057,-32.00413151451954,0</coordinates></Point>
  </Placemark>
  <Placemark>
    <name>1_3</name>
    <styleUrl>#segmentMarker</styleUrl>
    <Point><coordinates>115.51821206646225,-32.004352680471975,0</coordinates></Point>
  </Placemark>
  <Placemark>
    <name>1_4</name>
    <styleUrl>#segmentMarker</styleUrl>
    <Point><coordinates>115.51825805400395,-32.004573846424414,0</coordinates></Point>
  </Placemark>
  <Placemark>
    <name>1_E</name>
    <styleUrl>#segmentMarker</styleUrl>
    <Point><coordinates>115.51830404154565,-32.00479501237685,0</coordinates></Point>
  </Placemark>
  <Placemark>
    <styleUrl>#transectLine</styleUrl>
    <LineString><coordinates>115.51785928306974,-32.00394934609173,0 115.51804323323651,-32.00483400990148,0</coordinates></LineString>
  </Placemark>
  <Placemark>
    <name>2_1</name>
    <styleUrl>#segmentMarker</styleUrl>
    <Point><coordinates>115.51785928306974,-32.00394934609173,0</coordinates></Point>
  </Placemark>
  <Placemark>
    <name>2_2</name>
    <styleUrl>#segmentMarker</styleUrl>
    <Point><coordinates>115.51790527061144,-32.00417051204417,0</coordinates></Point>
  </Placemark>
  <Placemark>
    <name>2_3</name>
    <styleUrl>#segmentMarker</styleUrl>
    <Point><coordinates>115.51795125815313,-32.00439167799661,0</coordinates></Point>
  </Placemark>
  <Placemark>
    <name>2_4</name>
    <styleUrl>#segmentMarker</styleUrl>
    <Point><coordinates>115.51799724569483,-32.00461284394904,0</coordinates></Point>
  </Placemark>
  <Placemark>
    <name>2_E</name>
    <styleUrl>#segmentMarker</styleUrl>
    <Point><coordinates>115.51804323323651,-32.00483400990148,0</coordinates></Point>
  </Placemark>
  <Placemark>
    <styleUrl>#transectLine</styleUrl>
    <LineString><coordinates>115.51759847476062,-32.00398834361636,0 115.51778242492739,-32.00487300742611,0</coordinates></LineString>
  </Placemark>
  <Placemark>
    <name>3_1</name>
    <styleUrl>#segmentMarker</styleUrl>
    <Point><coordinates>115.51759847476062,-32.00398834361636,0</coordinates></Point>
  </Placemark>
  <Placemark>
    <name>3_2</name>
    <styleUrl>#segmentMarker</styleUrl>
    <Point><coordinates>115.5176444623023,-32.004209509568796,0</coordinates></Point>
  </Placemark>
  <Placemark>
    <name>3_3</name>
    <styleUrl>#segmentMarker</styleUrl>
    <Point><coordinates>115.517690449844,-32.004430675521235,0</coordinates></Point>
  </Placemark>
  <Placemark>
    <name>3_4</name>
    <styleUrl>#segmentMarker</styleUrl>
    <Point><coordinates>115.5177364373857,-32.004651841473674,0</coordinates></Point>
  </Placemark>
  <Placemark>
    <name>3_E</name>
    <styleUrl>#segmentMarker</styleUrl>
    <Point><coordinates>115.51778242492739,-32.00487300742611,0</coordinates></Point>
  </Placemark>
  <Placemark>
    <styleUrl>#transectLine</styleUrl>
    <LineString><coordinates>115.51733766645148,-32.00402734114099,0 115.51752161661825,-32.00491200495074,0</coordinates></LineString>
  </Placemark>
  <Placemark>
    <name>4_1</name>
    <styleUrl>#segmentMarker</styleUrl>
    <Point><coordinates>115.51733766645148,-32.00402734114099,0</coordinates></Point>
  </Placemark>
  <Placemark>
    <name>4_2</name>
    <styleUrl>#segmentMarker</styleUrl>
    <Point><coordinates>115.51738365399318,-32.00424850709343,0</coordinates></Point>
  </Placemark>
  <Placemark>
    <name>4_3</name>
    <styleUrl>#segmentMarker</styleUrl>
    <Point><coordinates>115.51742964153486,-32.00446967304586,0</coordinates></Point>
  </Placemark>
  <Placemark>
    <name>4_4</name>
    <styleUrl>#segmentMarker</styleUrl>
    <Point><coordinates>115.51747562907656,-32.0046908389983,0</coordinates></Point>
  </Placemark>
  <Placemark>
    <name>4_E</name>
    <styleUrl>#segmentMarker</styleUrl>
    <Point><coordinates>115.51752161661825,-32.00491200495074,0</coordinates></Point>
  </Placemark>
  <Placemark>
    <styleUrl>#transectLine</styleUrl>
    <LineString><coordinates>115.51707685814235,-32.004066338665616,0 115.51726080830912,-32.004951002475366,0</coordinates></LineString>
  </Placemark>
  <Placemark>
    <name>5_1</name>
    <styleUrl>#segmentMarker</styleUrl>
    <Point><coordinates>115.51707685814235,-32.004066338665616,0</coordinates></Point>
  </Placemark>
  <Placemark>
    <name>5_2</name>
    <styleUrl>#segmentMarker</styleUrl>
    <Point><coordinates>115.51712284568404,-32.004287504618055,0</coordinates></Point>
  </Placemark>
  <Placemark>
    <name>5_3</name>
    <styleUrl>#segmentMarker</styleUrl>
    <Point><coordinates>115.51716883322574,-32.004508670570495,0</coordinates></Point>
  </Placemark>
  <Placemark>
    <name>5_4</name>
    <styleUrl>#segmentMarker</styleUrl>
    <Point><coordinates>115.51721482076744,-32.00472983652293,0</coordinates></Point>
  </Placemark>
  <Placemark>
    <name>5_E</name>
    <styleUrl>#segmentMarker</styleUrl>
    <Point><coordinates>115.51726080830912,-32.004951002475366,0</coordinates></Point>
  </Placemark>
  <Placemark>
    <styleUrl>#transectLine</styleUrl>
    <LineString><coordinates>115.51681604983322,-32.00410533619025,0 115.517,-32.00499,0</coordinates></LineString>
  </Placemark>
  <Placemark>
    <name>6_1</name>
    <styleUrl>#segmentMarker</styleUrl>
    <Point><coordinates>115.51681604983322,-32.00410533619025,0</coordinates></Point>
  </Placemark>
  <Placemark>
    <name>6_2</name>
    <styleUrl>#segmentMarker</styleUrl>
    <Point><coordinates>115.5168620373749,-32.00432650214268,0</coordinates></Point>
  </Placemark>
  <Placemark>
    <name>6_3</name>
    <styleUrl>#segmentMarker</styleUrl>
    <Point><coordinates>115.5169080249166,-32.00454766809512,0</coordinates></Point>
  </Placemark>
  <Placemark>
    <name>6_4</name>
    <styleUrl>#segmentMarker</styleUrl>
    <Point><coordinates>115.5169540124583,-32.00476883404756,0</coordinates></Point>
  </Placemark>
  <Placemark>
    <name>6_E</name>
    <styleUrl>#segmentMarker</styleUrl>
    <Point><coordinates>115.517,-32.00499,0</coordinates></Point>
  </Placemark>
</Document>
</kml>
