<?xml version="1.0" encoding="UTF-8"?>
<kml xmlns="http://www.opengis.net/kml/2.2">
<Document>
  <name>Lake Timperley trial transects</name>
  <Style id="transectLine">
    <LineStyle>
      <color>ff0080ff</color>
      <width>3</width>
    </LineStyle>
  </Style>
  <Style id="segmentMarker">
    <IconStyle>
      <color>ff00ffff</color>
      <scale>1.0</scale>
      <Icon>
        <href>http://maps.google.com/mapfiles/kml/paddle/wht-blank.png</href>
      </Icon>
    </IconStyle>
    <LabelStyle>
      <color>ffffffff</color>
      <scale>1.1</scale>
    </LabelStyle>
  </Style>
  <Placemark>
    <styleUrl>#transectLine</styleUrl>
    <LineString>
      <coordinates>115.517,-32.00499,0 115.51681605,-32.00410534,0</coordinates>
    </LineString>
  </Placemark>
  <Placemark>
    <name>1</name>
    <styleUrl>#segmentMarker</styleUrl>
    <Point>
      <coordinates>115.517,-32.00499,0</coordinates>
    </Point>
  </Placemark>
  <Placemark>
    <name>2</name>
    <styleUrl>#segmentMarker</styleUrl>
    <Point>
      <coordinates>115.51695401,-32.00476883,0</coordinates>
    </Point>
  </Placemark>
  <Placemark>
    <name>3</name>
    <styleUrl>#segmentMarker</styleUrl>
    <Point>
      <coordinates>115.51690802,-32.00454767,0</coordinates>
    </Point>
  </Placemark>
  <Placemark>
    <name>4</name>
    <styleUrl>#segmentMarker</styleUrl>
    <Point>
      <coordinates>115.51686204,-32.0043265,0</coordinates>
    </Point>
  </Placemark>
  <Placemark>
    <name>E</name>
    <styleUrl>#segmentMarker</styleUrl>
    <Point>
      <coordinates>115.51681605,-32.00410534,0</coordinates>
    </Point>
  </Placemark>
  <Placemark>
    <styleUrl>#transectLine</styleUrl>
    <LineString>
      <coordinates>115.51726081,-32.004951,0 115.51707686,-32.00406634,0</coordinates>
    </LineString>
  </Placemark>
  <Placemark>
    <name>1</name>
    <styleUrl>#segmentMarker</styleUrl>
    <Point>
      <coordinates>115.51726081,-32.004951,0</coordinates>
    </Point>
  </Placemark>
  <Placemark>
    <name>2</name>
    <styleUrl>#segmentMarker</styleUrl>
    <Point>
      <coordinates>115.51721482,-32.00472984,0</coordinates>
    </Point>
  </Placemark>
  <Placemark>
    <name>3</name>
    <styleUrl>#segmentMarker</styleUrl>
    <Point>
      <coordinates>115.51716883,-32.00450867,0</coordinates>
    </Point>
  </Placemark>
  <Placemark>
    <name>4</name>
    <styleUrl>#segmentMarker</styleUrl>
    <Point>
      <coordinates>115.51712285,-32.0042875,0</coordinates>
    </Point>
  </Placemark>
  <Placemark>
    <name>E</name>
    <styleUrl>#segmentMarker</styleUrl>
    <Point>
      <coordinates>115.51707686,-32.00406634,0</coordinates>
    </Point>
  </Placemark>
  <Placemark>
    <styleUrl>#transectLine</styleUrl>
    <LineString>
      <coordinates>115.51752162,-32.004912,0 115.51733767,-32.00402734,0</coordinates>
    </LineString>
  </Placemark>
  <Placemark>
    <name>1</name>
    <styleUrl>#segmentMarker</styleUrl>
    <Point>
      <coordinates>115.51752162,-32.004912,0</coordinates>
    </Point>
  </Placemark>
  <Placemark>
    <name>2</name>
    <styleUrl>#segmentMarker</styleUrl>
    <Point>
      <coordinates>115.51747563,-32.00469084,0</coordinates>
    </Point>
  </Placemark>
  <Placemark>
    <name>3</name>
    <styleUrl>#segmentMarker</styleUrl>
    <Point>
      <coordinates>115.51742964,-32.00446967,0</coordinates>
    </Point>
  </Placemark>
  <Placemark>
    <name>4</name>
    <styleUrl>#segmentMarker</styleUrl>
    <Point>
      <coordinates>115.51738365,-32.00424851,0</coordinates>
    </Point>
  </Placemark>
  <Placemark>
    <name>E</name>
    <styleUrl>#segmentMarker</styleUrl>
    <Point>
      <coordinates>115.51733767,-32.00402734,0</coordinates>
    </Point>
  </Placemark>
  <Placemark>
    <styleUrl>#transectLine</styleUrl>
    <LineString>
      <coordinates>115.51778242,-32.00487301,0 115.51759847,-32.00398834,0</coordinates>
    </LineString>
  </Placemark>
  <Placemark>
    <name>1</name>
    <styleUrl>#segmentMarker</styleUrl>
    <Point>
      <coordinates>115.51778242,-32.00487301,0</coordinates>
    </Point>
  </Placemark>
  <Placemark>
    <name>2</name>
    <styleUrl>#segmentMarker</styleUrl>
    <Point>
      <coordinates>115.51773644,-32.00465184,0</coordinates>
    </Point>
  </Placemark>
  <Placemark>
    <name>3</name>
    <styleUrl>#segmentMarker</styleUrl>
    <Point>
      <coordinates>115.51769045,-32.00443068,0</coordinates>
    </Point>
  </Placemark>
  <Placemark>
    <name>4</name>
    <styleUrl>#segmentMarker</styleUrl>
    <Point>
      <coordinates>115.51764446,-32.00420951,0</coordinates>
    </Point>
  </Placemark>
  <Placemark>
    <name>E</name>
    <styleUrl>#segmentMarker</styleUrl>
    <Point>
      <coordinates>115.51759847,-32.00398834,0</coordinates>
    </Point>
  </Placemark>
  <Placemark>
    <styleUrl>#transectLine</styleUrl>
    <LineString>
      <coordinates>115.51804323,-32.00483401,0 115.51785928,-32.00394935,0</coordinates>
    </LineString>
  </Placemark>
  <Placemark>
    <name>1</name>
    <styleUrl>#segmentMarker</styleUrl>
    <Point>
      <coordinates>115.51804323,-32.00483401,0</coordinates>
    </Point>
  </Placemark>
  <Placemark>
    <name>2</name>
    <styleUrl>#segmentMarker</styleUrl>
    <Point>
      <coordinates>115.51799725,-32.00461284,0</coordinates>
    </Point>
  </Placemark>
  <Placemark>
    <name>3</name>
    <styleUrl>#segmentMarker</styleUrl>
    <Point>
      <coordinates>115.51795126,-32.00439168,0</coordinates>
    </Point>
  </Placemark>
  <Placemark>
    <name>4</name>
    <styleUrl>#segmentMarker</styleUrl>
    <Point>
      <coordinates>115.51790527,-32.00417051,0</coordinates>
    </Point>
  </Placemark>
  <Placemark>
    <name>E</name>
    <styleUrl>#segmentMarker</styleUrl>
    <Point>
      <coordinates>115.51785928,-32.00394935,0</coordinates>
    </Point>
  </Placemark>
  <Placemark>
    <styleUrl>#transectLine</styleUrl>
    <LineString>
      <coordinates>115.51830404,-32.00479501,0 115.51812009,-32.00391035,0</coordinates>
    </LineString>
  </Placemark>
  <Placemark>
    <name>1</name>
    <styleUrl>#segmentMarker</styleUrl>
    <Point>
      <coordinates>115.51830404,-32.00479501,0</coordinates>
    </Point>
  </Placemark>
  <Placemark>
    <name>2</name>
    <styleUrl>#segmentMarker</styleUrl>
    <Point>
      <coordinates>115.51825805,-32.00457385,0</coordinates>
    </Point>
  </Placemark>
  <Placemark>
    <name>3</name>
    <styleUrl>#segmentMarker</styleUrl>
    <Point>
      <coordinates>115.51821207,-32.00435268,0</coordinates>
    </Point>
  </Placemark>
  <Placemark>
    <name>4</name>
    <styleUrl>#segmentMarker</styleUrl>
    <Point>
      <coordinates>115.51816608,-32.00413151,0</coordinates>
    </Point>
  </Placemark>
  <Placemark>
    <name>E</name>
    <styleUrl>#segmentMarker</styleUrl>
    <Point>
      <coordinates>115.51812009,-32.00391035,0</coordinates>
    </Point>
  </Placemark>
</Document>
</kml>
